SKYSAT-C1               
1 41601U 16040C   26196.54530963  .00005374  00000+0  15178-3 0  9995
2 41601  96.9548 226.7338 0000299 305.8175  54.3043 15.36752207562229
LAPAN-A3                
1 41603U 16040E   26196.97326416  .00001775  00000+0  57487-4 0  9991
2 41603  97.1505 192.1784 0008242 272.7920  87.2380 15.33280529559229
GAOFEN-3                
1 41727U 16049A   26196.94520020 -.00000115  00000+0 -21721-4 0  9992
2 41727  98.4010 204.2972 0001753  84.7389 275.4000 14.42218538522797
SKYSAT-C4               
1 41771U 16058B   26196.49741296  .00011548  00000+0  21162-3 0  9999
2 41771  96.9158 217.0987 0003425 116.4408 243.7197 15.49444803549858
SKYSAT-C5               
1 41772U 16058C   26196.34177105  .00004080  00000+0  12741-3 0  9992
2 41772  97.0454 235.7193 0002566 160.1031 200.0313 15.33720350548064
SKYSAT-C2               
1 41773U 16058D   26196.02683222  .00007118  00000+0  16515-3 0  9998
2 41773  97.0156 217.0836 0001519 354.7019   5.4213 15.42678066549349
SKYSAT-C3               
1 41774U 16058E   26196.04101935  .00014739  00000+0  23177-3 0  9996
2 41774  96.8991 225.8356 0002515 132.0460 228.1009 15.53702651550431
ALSAT-1B                
1 41785U 16059C   26196.98849034  .00000271  00000+0  50299-4 0  9993
2 41785  97.7749 204.5094 0010345 127.4836 232.7314 14.72295056524811
PATHFINDER 1            
1 41787U 16059E   26196.97503173  .00000265  00000+0  54441-4 0  9991
2 41787  97.8177 194.9535 0029837 113.3409 247.0941 14.67693642523931
SCATSAT 1               
1 41790U 16059H   26196.75273227  .00000639  00000+0  90537-4 0  9996
2 41790  98.1178 260.8119 0055252 154.7791 205.6137 14.79588015105814
GOKTURK 1A              
1 41875U 16073A   26196.97521863  .00000328  00000+0  73480-4 0  9995
2 41875  98.1220  91.1943 0001403  80.2833 279.8528 14.62793971513030
RESOURCESAT-2A          
1 41877U 16074A   26196.92758734 -.00000324  00000+0 -12772-3 0  9996
2 41877  98.7525 270.1955 0002390  27.1238 333.0064 14.21607276498388
CARTOSAT-2D             
1 41948U 17008A   26196.94088560  .00000824  00000+0  42242-4 0  9997
2 41948  97.4095 255.7066 0006067 135.7691 224.4030 15.19285465521946
SENTINEL-2B             
1 42063U 17013A   26196.94876830  .00000014  00000+0  22102-4 0  9991
2 42063  98.5691 271.3159 0001203  89.8567 270.2753 14.30815055488752
CARTOSAT-2E             
1 42767U 17036C   26196.95866749  .00001776  00000+0  87474-4 0  9995
2 42767  97.4263 256.2840 0003295 185.8595 174.2602 15.19257364502514
FORMOSAT-5              
1 42920U 17049A   26196.87945251  .00000044  00000+0  22095-4 0  9992
2 42920  98.2246 271.5507 0011294   1.7428 358.3805 14.50907929470836
SENTINEL-5P             
1 42969U 17064A   26196.81915036  .00000006  00000+0  24074-4 0  9991
2 42969  98.7929 138.7478 0001136  93.1650 266.9656 14.19523350453622
SKYSAT-C11              
1 42987U 17068A   26196.94765457  .00018575  00000+0  23691-3 0  9992
2 42987  97.4381 347.0668 0001161 158.9178 201.2126 15.59351131487722
SKYSAT-C10              
1 42988U 17068B   26196.91234370  .00006009  00000+0  17869-3 0  9994
2 42988  97.4542 334.0538 0001464 110.9376 249.2024 15.35125075486760
SKYSAT-C9               
1 42989U 17068C   26196.92334098  .00007471  00000+0  17585-3 0  9993
2 42989  97.4461 335.2786 0008579  42.5748 317.6163 15.42224961487189
SKYSAT-C8               
1 42990U 17068D   26196.90461324  .00005815  00000+0  16040-3 0  9991
2 42990  97.4558 333.9566 0001212 103.3850 256.7530 15.37499510486724
SKYSAT-C7               
1 42991U 17068E   26196.89911915  .00005755  00000+0  15897-3 0  9998
2 42991  97.4569 334.9426 0005667  18.9667 341.1788 15.37449994486789
SKYSAT-C6               
1 42992U 17068F   26196.91048354  .00005061  00000+0  15543-3 0  9998
2 42992  97.4607 334.8045 0005081  87.6386 272.5438 15.34176907486721
CARTOSAT-2F             
1 43111U 18004A   26196.99124639  .00000102  00000+0  80798-5 0  9999
2 43111  97.4774 256.3421 0002366 130.1455 229.9987 15.19171951471704
GAOFEN-1 02             
1 43259U 18031A   26196.96558528  .00000141  00000+0  27600-4 0  9992
2 43259  98.0518 259.4098 0001482 283.4730  76.6314 14.76472139446943
GAOFEN-1 03             
1 43260U 18031B   26196.94368838  .00000310  00000+0  51912-4 0  9996
2 43260  98.0503 259.2433 0002354  13.6481 346.4792 14.76463003446932
GAOFEN-1 04             
1 43262U 18031D   26196.91938795 -.00000193  00000+0 -20300-4 0  9998
2 43262  98.0519 259.4134 0001265  55.1743 304.9586 14.76469548446922
SENTINEL-3B             
1 43437U 18039A   26196.80268665  .00000043  00000+0  35746-4 0  9992
2 43437  98.6236 263.9224 0001153 119.6296 240.5000 14.26736422428203
GAOFEN-5 01             
1 43461U 18043A   26196.90219309  .00000126  00000+0  35916-4 0  9997
2 43461  98.4590 169.0949 0002052  30.5044 329.6275 14.60623571435885
GAOFEN-6                
1 43484U 18048A   26196.94198237  .00000345  00000+0  57104-4 0  9993
2 43484  98.0962 259.6454 0012121  79.4244 280.8330 14.76383953437637
